ORBCOMM-X               
1 21576U 91050C   24327.13583817  .00000824  00000+0  25931-3 0  9996
2 21576  98.3723  31.7047 0004817  93.1419 267.0322 14.42927262752256
ORBCOMM FM01            
1 23545U 95017A   24327.15261784  .00016090  00000+0  18729-2 0  9997
2 23545  69.9648 228.6953 0007473 277.3171  82.7131 14.85326179581717
ORBCOMM FM02            
1 23546U 95017B   24327.21973081  .00018629  00000+0  21728-2 0  9998
2 23546  69.9666 248.2127 0009560 275.6351  84.3711 14.85185975581369
ORBCOMM FM08            
1 25112U 97084A   24327.90513265  .00004999  00000+0  14782-2 0  9992
2 25112  45.0136 277.1291 0007674 295.9274  64.0786 14.44352408411533
ORBCOMM FM10            
1 25113U 97084B   24327.30520609  .00004839  00000+0  14368-2 0  9990
2 25113  45.0152 282.0525 0005112 268.3266  91.6999 14.44203477586599
ORBCOMM FM11            
1 25114U 97084C   24327.89852879  .00004263  00000+0  12765-2 0  9992
2 25114  45.0134 279.4926 0005996 269.3793  90.6370 14.43985889411649
ORBCOMM FM12            
1 25115U 97084D   24327.44777036  .00004152  00000+0  12444-2 0  9996
2 25115  45.0143 281.4089 0004980 270.0038  90.0242 14.43985095411377
ORBCOMM FM09            
1 25116U 97084E   24327.39598968  .00004150  00000+0  12455-2 0  9996
2 25116  45.0149 282.4162 0005753 252.0849 107.9374 14.43918052411571
